{
"type": "FeatureCollection",
"name": "other_seattle",
"crs": { "type": "name", "properties": { "name": "urn:ogc:def:crs:OGC:1.3:CRS84" } },
"features": [
{ "type": "Feature", "properties": { "id": "way/108384951", "@id": "way/108384951", "addr:city": "Seattle", "addr:housenumber": "804", "addr:postcode": "98104", "addr:state": "WA", "addr:street": "9th Avenue", "amenity": "place_of_worship", "building": "cathedral", "denomination": "roman_catholic", "ele": "97", "name": "Saint James Cathedral", "religion": "christian", "source": "King County GIS", "start_date": "1907", "website": "https://www.stjames-cathedral.org/", "wikidata": "Q7588439", "wikipedia": "en:St. James Cathedral (Seattle)", "check_date": null, "gnis:feature_id": null, "phone": null, "building:levels": null, "gnis:county_id": null, "gnis:created": null, "gnis:state_id": null, "name:en": null, "name:ro": null }, "geometry": { "type": "Point", "coordinates": [ -122.325838906585901, 47.607679535169595 ] } },
{ "type": "Feature", "properties": { "id": "way/220820747", "@id": "way/220820747", "addr:city": "Seattle", "addr:housenumber": "6800", "addr:postcode": "98115", "addr:state": null, "addr:street": "35th Avenue Northeast", "amenity": "place_of_worship", "building": "synagogue", "denomination": "conservative", "ele": null, "name": "Congregation Beth Shalom", "religion": "jewish", "source": "King County GIS;data.seattle.gov", "start_date": null, "website": "https://bethshalomseattle.org/", "wikidata": null, "wikipedia": null, "check_date": "2024-07-15", "gnis:feature_id": "2461527", "phone": "+1 206 524 0075", "building:levels": null, "gnis:county_id": null, "gnis:created": null, "gnis:state_id": null, "name:en": null, "name:ro": null }, "geometry": { "type": "Point", "coordinates": [ -122.290049196190509, 47.678081353809674 ] } },
{ "type": "Feature", "properties": { "id": "way/231658850", "@id": "way/231658850", "addr:city": "Seattle", "addr:housenumber": "400", "addr:postcode": "98109", "addr:state": "WA", "addr:street": "Yale Avenue North", "amenity": "place_of_worship", "building": "cathedral", "denomination": "orthodox", "ele": "36", "name": "Saint Spiridon Orthodox Cathedral of Seattle", "religion": "christian", "source": "data.seattle.gov;https://web6.seattle.gov/DPD/HistoricalSite/QueryResult.aspx?ID=-1506166991", "start_date": "1938", "website": "https://www.saintspiridon.org/", "wikidata": "Q16899620", "wikipedia": null, "check_date": null, "gnis:feature_id": "2461986", "phone": null, "building:levels": "3", "gnis:county_id": "033", "gnis:created": "07/15/2008", "gnis:state_id": "53", "name:en": "Saint Spiridon Orthodox Cathedral of Seattle", "name:ro": "Catedrala Ortodoxă „Sfântul Spiridon” Seattle WA" }, "geometry": { "type": "Point", "coordinates": [ -122.330124338459157, 47.622147857703368 ] } },
{ "type": "Feature", "properties": { "id": "way/260881267", "@id": "way/260881267", "addr:city": null, "addr:housenumber": null, "addr:postcode": null, "addr:state": null, "addr:street": null, "amenity": "place_of_worship", "building": "chapel", "denomination": null, "ele": null, "name": "Saint Banards Chappel", "religion": "christian", "source": null, "start_date": null, "website": null, "wikidata": null, "wikipedia": null, "check_date": null, "gnis:feature_id": null, "phone": null, "building:levels": null, "gnis:county_id": null, "gnis:created": null, "gnis:state_id": null, "name:en": null, "name:ro": null }, "geometry": { "type": "Point", "coordinates": [ -121.41581643457296, 47.424179255685509 ] } },
{ "type": "Feature", "properties": { "id": "way/372602973", "@id": "way/372602973", "addr:city": "Edmonds", "addr:housenumber": "204", "addr:postcode": "98020", "addr:state": "WA", "addr:street": "6th Avenue North", "amenity": "place_of_worship", "building": "chapel", "denomination": null, "ele": null, "name": null, "religion": "christian", "source": null, "start_date": null, "website": null, "wikidata": null, "wikipedia": null, "check_date": null, "gnis:feature_id": null, "phone": null, "building:levels": "1.5", "gnis:county_id": null, "gnis:created": null, "gnis:state_id": null, "name:en": null, "name:ro": null }, "geometry": { "type": "Point", "coordinates": [ -122.374582729150603, 47.81146178076407 ] } },
{ "type": "Feature", "properties": { "id": "way/392710746", "@id": "way/392710746", "addr:city": null, "addr:housenumber": null, "addr:postcode": null, "addr:state": null, "addr:street": null, "amenity": "place_of_worship", "building": "synagogue", "denomination": "reform", "ele": null, "name": "Temple B'nai Torah", "religion": "jewish", "source": null, "start_date": null, "website": "https://www.templebnaitorah.org/", "wikidata": null, "wikipedia": null, "check_date": null, "gnis:feature_id": null, "phone": null, "building:levels": null, "gnis:county_id": null, "gnis:created": null, "gnis:state_id": null, "name:en": null, "name:ro": null }, "geometry": { "type": "Point", "coordinates": [ -122.129901971991345, 47.612389220107978 ] } },
{ "type": "Feature", "properties": { "id": "way/1228034597", "@id": "way/1228034597", "addr:city": null, "addr:housenumber": null, "addr:postcode": null, "addr:state": null, "addr:street": null, "amenity": "place_of_worship", "building": "chapel", "denomination": null, "ele": null, "name": "Wayside Chapel", "religion": "christian", "source": null, "start_date": null, "website": null, "wikidata": null, "wikipedia": null, "check_date": "2023-09-17", "gnis:feature_id": null, "phone": null, "building:levels": null, "gnis:county_id": null, "gnis:created": null, "gnis:state_id": null, "name:en": null, "name:ro": null }, "geometry": { "type": "Point", "coordinates": [ -121.846038350000015, 47.85428965 ] } }
]
}
