{
"type": "FeatureCollection",
"name": "religious_tukwila",
"crs": { "type": "name", "properties": { "name": "urn:ogc:def:crs:OGC:1.3:CRS84" } },
"features": [
{ "type": "Feature", "properties": { "id": "way/237165618", "@id": "way/237165618", "addr:city": "Tukwila", "addr:housenumber": "10201", "addr:postcode": "98178", "addr:state": "WA", "addr:street": "Beacon Avenue South", "amenity": "place_of_worship", "building": "yes", "denomination": "jehovahs_witness", "ele": "68", "gnis:county_id": "033", "gnis:created": "07/15/2008", "gnis:feature_id": "2461931;2462054", "gnis:state_id": "53", "name": "Ryan Way Kingdom Hall of Jehovahs Witnesses;Tabernacle of Praise", "religion": "christian", "name:en": null, "name:vi": null, "operator": null, "operator:wikidata": null, "short_name": null, "short_name:vi": null, "website": null }, "geometry": { "type": "Point", "coordinates": [ -122.272366845510078, 47.509561545661818 ] } },
{ "type": "Feature", "properties": { "id": "way/461445232", "@id": "way/461445232", "addr:city": "Tukwila", "addr:housenumber": "6841", "addr:postcode": "98188", "addr:state": "WA", "addr:street": "South 180th Street", "amenity": "place_of_worship", "building": "yes", "denomination": "roman_catholic", "ele": null, "gnis:county_id": null, "gnis:created": null, "gnis:feature_id": null, "gnis:state_id": null, "name": "Giáo Xứ Các Thánh Tử Đạo Việt Nam", "religion": "christian", "name:en": "Vietnamese Martyrs Church", "name:vi": "Giáo Xứ Các Thánh Tử Đạo Việt Nam", "operator": "Archdiocese of Seattle", "operator:wikidata": "Q1339105", "short_name": "GXCTTĐVN", "short_name:vi": "GXCTTĐVN", "website": "https://vmpwa.org/" }, "geometry": { "type": "Point", "coordinates": [ -122.24727860916677, 47.43953973066111 ] } },
{ "type": "Feature", "properties": { "id": "way/463262420", "@id": "way/463262420", "addr:city": "Tukwila", "addr:housenumber": "3118", "addr:postcode": "98168", "addr:state": "WA", "addr:street": "South 140th Street", "amenity": "place_of_worship", "building": "yes", "denomination": null, "ele": null, "gnis:county_id": null, "gnis:created": null, "gnis:feature_id": null, "gnis:state_id": null, "name": null, "religion": null, "name:en": null, "name:vi": null, "operator": null, "operator:wikidata": null, "short_name": null, "short_name:vi": null, "website": null }, "geometry": { "type": "Point", "coordinates": [ -122.292452907075301, 47.478600273233461 ] } },
{ "type": "Feature", "properties": { "id": "way/521069692", "@id": "way/521069692", "addr:city": null, "addr:housenumber": null, "addr:postcode": null, "addr:state": null, "addr:street": null, "amenity": "place_of_worship", "building": null, "denomination": null, "ele": null, "gnis:county_id": null, "gnis:created": null, "gnis:feature_id": null, "gnis:state_id": null, "name": null, "religion": "buddhist", "name:en": null, "name:vi": null, "operator": null, "operator:wikidata": null, "short_name": null, "short_name:vi": null, "website": null }, "geometry": { "type": "Point", "coordinates": [ -122.288004848511775, 47.471121952643905 ] } },
{ "type": "Feature", "properties": { "id": "way/521303313", "@id": "way/521303313", "addr:city": null, "addr:housenumber": null, "addr:postcode": null, "addr:state": null, "addr:street": null, "amenity": "place_of_worship", "building": null, "denomination": null, "ele": null, "gnis:county_id": null, "gnis:created": null, "gnis:feature_id": null, "gnis:state_id": null, "name": "Abu-Bakr", "religion": "muslim", "name:en": null, "name:vi": null, "operator": null, "operator:wikidata": null, "short_name": null, "short_name:vi": null, "website": null }, "geometry": { "type": "Point", "coordinates": [ -122.284385357886364, 47.476852811061285 ] } },
{ "type": "Feature", "properties": { "id": "way/521714353", "@id": "way/521714353", "addr:city": null, "addr:housenumber": null, "addr:postcode": null, "addr:state": null, "addr:street": null, "amenity": "place_of_worship", "building": null, "denomination": "presbyterian", "ele": null, "gnis:county_id": null, "gnis:created": null, "gnis:feature_id": null, "gnis:state_id": null, "name": "Foster Tukwila Presbyterian Church", "religion": "christian", "name:en": null, "name:vi": null, "operator": null, "operator:wikidata": null, "short_name": null, "short_name:vi": null, "website": null }, "geometry": { "type": "Point", "coordinates": [ -122.264695924950132, 47.473590191826119 ] } },
{ "type": "Feature", "properties": { "id": "way/647569855", "@id": "way/647569855", "addr:city": "Tukwila", "addr:housenumber": "15880", "addr:postcode": "98188", "addr:state": "WA", "addr:street": "Military Road South", "amenity": "place_of_worship", "building": "yes", "denomination": null, "ele": null, "gnis:county_id": null, "gnis:created": null, "gnis:feature_id": null, "gnis:state_id": null, "name": null, "religion": "christian", "name:en": null, "name:vi": null, "operator": null, "operator:wikidata": null, "short_name": null, "short_name:vi": null, "website": null }, "geometry": { "type": "Point", "coordinates": [ -122.286041595999862, 47.459977421548459 ] } },
{ "type": "Feature", "properties": { "id": "way/652154722", "@id": "way/652154722", "addr:city": "Tukwila", "addr:housenumber": "3455", "addr:postcode": "98168", "addr:state": "WA", "addr:street": "South 148th Street", "amenity": "place_of_worship", "building": "yes", "denomination": null, "ele": null, "gnis:county_id": null, "gnis:created": null, "gnis:feature_id": null, "gnis:state_id": null, "name": "Church by the Side of the Road", "religion": "christian", "name:en": null, "name:vi": null, "operator": null, "operator:wikidata": null, "short_name": null, "short_name:vi": null, "website": null }, "geometry": { "type": "Point", "coordinates": [ -122.287169541151485, 47.469949434124757 ] } }
]
}
