{
"type": "FeatureCollection",
"name": "religious_RainierBeach",
"crs": { "type": "name", "properties": { "name": "urn:ogc:def:crs:OGC:1.3:CRS84" } },
"features": [
{ "type": "Feature", "properties": { "id": "way/204156452", "@id": "way/204156452", "addr:city": "Seattle", "addr:housenumber": "9656", "addr:postcode": "98118", "addr:state": "WA", "addr:street": "Waters Avenue South", "amenity": "place_of_worship", "building": "yes", "denomination": "presbyterian", "ele": "55", "gnis:county_id": "033", "gnis:created": "07/15/2008", "gnis:feature_id": "2461916", "gnis:state_id": "53", "name": "Rainier Beach Presbyterian Church", "religion": "christian", "source:addr:id": "511204", "website": null, "source": null }, "geometry": { "type": "Point", "coordinates": [ -122.256907843120914, 47.516092903777803 ] } },
{ "type": "Feature", "properties": { "id": "way/236666121", "@id": "way/236666121", "addr:city": null, "addr:housenumber": null, "addr:postcode": null, "addr:state": null, "addr:street": null, "amenity": "place_of_worship", "building": "yes", "denomination": "ethiopian_orthodox", "ele": "37", "gnis:county_id": "033", "gnis:created": "07/15/2008", "gnis:feature_id": null, "gnis:state_id": "53", "name": "KibreQidusan Medhanealem EOTC", "religion": "christian", "source:addr:id": null, "website": "https://www.kibreqidusan.org/", "source": null }, "geometry": { "type": "Point", "coordinates": [ -122.263673756379475, 47.517111212647862 ] } },
{ "type": "Feature", "properties": { "id": "way/236673576", "@id": "way/236673576", "addr:city": "Seattle", "addr:housenumber": "10001", "addr:postcode": "98178", "addr:state": "WA", "addr:street": "57th Avenue South", "amenity": "place_of_worship", "building": "yes", "denomination": "catholic", "ele": null, "gnis:county_id": null, "gnis:created": null, "gnis:feature_id": null, "gnis:state_id": null, "name": "St Paul Parish", "religion": "christian", "source:addr:id": null, "website": null, "source": "King County GIS;data.seattle.gov" }, "geometry": { "type": "Point", "coordinates": [ -122.262650785512278, 47.510638506259106 ] } },
{ "type": "Feature", "properties": { "id": "way/237154119", "@id": "way/237154119", "addr:city": "Seattle", "addr:housenumber": "10033", "addr:postcode": "98178", "addr:state": "WA", "addr:street": "55th Avenue South", "amenity": "place_of_worship", "building": "yes", "denomination": "pentecostal", "ele": "71", "gnis:county_id": "033", "gnis:created": "07/15/2008", "gnis:feature_id": "2461890", "gnis:state_id": "53", "name": "Pentecostal Covenant Church", "religion": "christian", "source:addr:id": null, "website": null, "source": "King County GIS;data.seattle.gov" }, "geometry": { "type": "Point", "coordinates": [ -122.265677139059051, 47.511070811841734 ] } },
{ "type": "Feature", "properties": { "id": "way/614657272", "@id": "way/614657272", "addr:city": null, "addr:housenumber": null, "addr:postcode": null, "addr:state": null, "addr:street": null, "amenity": "place_of_worship", "building": null, "denomination": "lutheran", "ele": "70", "gnis:county_id": "033", "gnis:created": "07/15/2008", "gnis:feature_id": "2461398", "gnis:state_id": "53", "name": "Amazing Grace Lutheran Church", "religion": "christian", "source:addr:id": null, "website": null, "source": null }, "geometry": { "type": "Point", "coordinates": [ -122.260064605256574, 47.511084891159953 ] } }
]
}
